{"spkid": "50655578", "covariance": {"elements": [{"name": "e", "sigma": 6.06819460496013e-08, "value": ".5963283251151983", "title": "eccentricity", "units": null, "label": "e"}, {"label": "q", "units": "au", "title": "perihelion distance", "value": ".7759574549118838", "name": "q", "sigma": 1.16775227898583e-07}, {"label": "tp", "sigma": 9.18083476405877e-06, "name": "tp", "title": "time of perihelion passage", "value": "2457686.861785431274", "units": "TDB"}, {"value": "248.2358862860565", "title": "longitude of the ascending node", "units": "deg", "sigma": 0.000143657923503976, "name": "om", "label": "node"}, {"value": "287.4848070834422", "title": "argument of perihelion", "units": "deg", "name": "w", "sigma": 0.000140732785618305, "label": "peri"}, {"title": "inclination", "value": "3.161786146743787", "units": "deg", "sigma": 1.34975808476699e-05, "name": "i", "label": "i"}], "data": [["3.682298576366728E-15", "-7.086074811213391E-15", "3.306486567069559E-13", "8.786766741233765E-13", "1.097249206009364E-13", "1.228073820793083E-13"], ["-7.086074811213391E-15", "1.3636453850766E-14", "-6.390415115156005E-13", "-1.718793580667874E-12", "-1.85265834136811E-13", "-2.400536895033553E-13"], ["3.306486567069559E-13", "-6.390415115156005E-13", "8.428772696495006E-11", "5.145991712310842E-10", "-3.832840127002979E-10", "7.123863336244649E-11"], ["8.786766741233765E-13", "-1.718793580667874E-12", "5.145991712310842E-10", "2.063759898547434E-8", "-2.007179444397042E-8", "1.852235237608049E-9"], ["1.097249206009364E-13", "-1.85265834136811E-13", "-3.832840127002979E-10", "-2.007179444397042E-8", "1.980571694788771E-8", "-1.774202611400217E-9"], ["1.228073820793083E-13", "-2.400536895033553E-13", "7.123863336244649E-11", "1.852235237608049E-9", "-1.774202611400217E-9", "1.821846887393849E-10"]], "labels": ["e", "q", "tp", "node", "peri", "i"], "epoch": "2457372.5"}, "elements": [{"units": null, "title": "eccentricity", "value": ".5954631457081638", "sigma": "5.9555E-8", "name": "e", "label": "e"}, {"label": "a", "units": "au", "title": "semi-major axis", "value": "1.92361954244752", "sigma": "3.4103E-9", "name": "a"}, {"label": "q", "sigma": "1.1402E-7", "name": "q", "units": "au", "title": "perihelion distance", "value": ".7781749985560211"}, {"units": "deg", "value": "3.155967425566389", "title": "inclination; angle with respect to x-y ecliptic plane", "name": "i", "sigma": "1.3479E-5", "label": "i"}, {"units": "deg", "title": "longitude of the ascending node", "value": "247.7063145593174", "name": "om", "sigma": ".00014533", "label": "node"}, {"name": "w", "sigma": ".00014239", "title": "argument of perihelion", "value": "288.0091045933278", "units": "deg", "label": "peri"}, {"title": "mean anomaly", "value": "218.9009347014936", "units": "deg", "name": "ma", "sigma": "3.5996E-6", "label": "M"}, {"label": "tp", "units": "TDB", "title": "time of perihelion passage", "value": "2461582.443245110001", "name": "tp", "sigma": "1.0288E-5"}, {"label": "period", "sigma": "2.5914E-6", "name": "per", "title": "sidereal orbital period", "value": "974.4895754533087", "units": "d"}, {"name": "n", "sigma": "9.8241E-10", "units": "deg/d", "value": ".3694241673468255", "title": "mean motion", "label": "n"}, {"label": "Q", "sigma": "5.441E-9", "name": "ad", "units": "au", "value": "3.06906408633902", "title": "aphelion distance"}], "epoch": "2461200.5"}